STARLINK-31683          
1 59573U 24076K   26068.16360077 -.00000824  00000+0 -20416-4 0  9992
2 59573  43.0049  11.8462 0001170 281.5522  78.5198 15.27573131106423
YAOGAN-43 01D           
1 60461U 24148D   26068.43560480  .00010676  00000+0  37766-3 0  9999
2 60461  35.0010  61.7102 0002556 326.2473  33.8080 15.28369377 87008
