[{"OBJECT_NAME":"STARLINK-31683","OBJECT_ID":"2024-076K","EPOCH":"2026-03-09T03:55:35.106528","MEAN_MOTION":15.27573131,"ECCENTRICITY":0.00011707,"INCLINATION":43.0049,"RA_OF_ASC_NODE":11.8462,"ARG_OF_PERICENTER":281.5522,"MEAN_ANOMALY":78.5198,"EPHEMERIS_TYPE":0,"CLASSIFICATION_TYPE":"U","NORAD_CAT_ID":59573,"ELEMENT_SET_NO":999,"REV_AT_EPOCH":10642,"BSTAR":-2.0415594e-5,"MEAN_MOTION_DOT":-8.24e-6,"MEAN_MOTION_DDOT":0},{"OBJECT_NAME":"YAOGAN-43 01D","OBJECT_ID":"2024-148D","EPOCH":"2026-03-09T10:27:16.254720","MEAN_MOTION":15.28369377,"ECCENTRICITY":0.00025569,"INCLINATION":35.001,"RA_OF_ASC_NODE":61.7102,"ARG_OF_PERICENTER":326.2473,"MEAN_ANOMALY":33.808,"EPHEMERIS_TYPE":0,"CLASSIFICATION_TYPE":"U","NORAD_CAT_ID":60461,"ELEMENT_SET_NO":999,"REV_AT_EPOCH":8700,"BSTAR":0.00037765912,"MEAN_MOTION_DOT":0.00010676,"MEAN_MOTION_DDOT":0}]
